41180,ORBCOMM FM119,2015,98.87,-1.0,-,47.0,Inactive,0,LEO,USA,ORBCOMM,Unknown,Unknown,Unknown,1 41180U 15081B   24090.40970533  .00001301  00000+0  32758-3 0  9997,2 41180  46.9996 129.2710 0001575 216.4571 143.6207 14.56414463440992,14.56414463,0.0001575,LEO
41181,ORBCOMM FM105,2015,99.7,-1.0,-,47.0,Inactive,0,LEO,USA,ORBCOMM,Unknown,Unknown,Unknown,1 41181U 15081C   24090.31578813  .00000725  00000+0  25423-3 0  9993,2 41181  47.0008  92.8725 0001131 158.4304 201.6624 14.44296340436562,14.4429634,0.0001131,LEO
40091,ORBCOMM FM103,2014,98.87,172.0,+,47.01,Active,1,LEO,USA,ORBCOMM,Commercial,Communications,Falcon,1 40091U 14040F   24090.33775910  .00001475  00000+0  36630-3 0  9990,2 40091  47.0064 311.1267 0001567  31.4732 328.6246 14.56425361499366,14.56425361,0.0001567,LEO
41179,ORBCOMM FM114,2015,98.87,172.0,+,47.0,Active,1,LEO,USA,ORBCOMM,Commercial,Communications,Falcon,1 41179U 15081A   24090.64624816  .00001858  00000+0  45143-3 0  9990,2 41179  47.0009 218.9698 0001080 141.0977 218.9985 14.56445634439779,14.56445634,0.000108,LEO
41182,ORBCOMM FM110,2015,98.87,172.0,+,47.0,Active,1,LEO,USA,ORBCOMM,Commercial,Communications,Falcon,1 41182U 15081D   24090.48615322  .00001725  00000+0  42210-3 0  9993,2 41182  46.9998 219.1345 0002459 278.3928  81.6678 14.56432834439627,14.56432834,0.0002459,LEO
41183,ORBCOMM FM118,2015,98.87,172.0,+,47.0,Active,1,LEO,USA,ORBCOMM,Commercial,Communications,Falcon,1 41183U 15081E   24090.66916430  .00001791  00000+0  43676-3 0  9998,2 41183  47.0020 218.5690 0002635 277.5937  82.4648 14.56433629439831,14.56433629,0.0002635,LEO
41184,ORBCOMM FM112,2015,98.87,172.0,+,47.0,Active,1,LEO,USA,ORBCOMM,Commercial,Communications,Falcon,1 41184U 15081F   24090.38763669  .00001613  00000+0  39704-3 0  9992,2 41184  46.9969 128.6048 0001098 218.3038 141.7769 14.56426487440937,14.56426487,0.0001098,LEO
41185,ORBCOMM FM113,2015,98.87,172.0,+,47.0,Active,1,LEO,USA,ORBCOMM,Commercial,Communications,Falcon,1 41185U 15081G   24090.50190826  .00001420  00000+0  35412-3 0  9994,2 41185  46.9998 128.3256 0001299 235.9998 124.0764 14.56422751440930,14.56422751,0.0001299,LEO
